[Satellite]
VERSION=1.1
NAME=FLOCK 3P-15
NICKNAME=FLOCK 3P-15
TLE1=1 42039U 17008CV  17186.20702447  .00001422  00000-0  64161-4 0  9994
TLE2=2 42039  97.4946 247.5580 0008956 143.4603 216.7246 15.22637835 20450
